{
"type": "FeatureCollection",
"name": "sites",
"crs": { "type": "name", "properties": { "name": "urn:ogc:def:crs:OGC:1.3:CRS84" } },
"features": [
{"type":"Feature","properties":{"Sites":"TPL","Secteur":"BDA"},"geometry":{"type":"Point","coordinates":[43.262977371130482,-22.21877720741875,0.0]}},
{"type":"Feature","properties":{"Sites":"KTB","Secteur":"MKN"},"geometry":{"type":"Point","coordinates":[43.235420803815863,-22.234348974534839,0.0]}},
{"type":"Feature","properties":{"Sites":"AGL","Secteur":"BDA"},"geometry":{"type":"Point","coordinates":[43.27738818839773,-22.219975649828719,0.0]}},
{"type":"Feature","properties":{"Sites":"VTV","Secteur":"BDA"},"geometry":{"type":"Point","coordinates":[43.289339904000933,-22.222432699536711,0.0]}},
{"type":"Feature","properties":{"Sites":"KDR","Secteur":"BDA"},"geometry":{"type":"Point","coordinates":[43.297144175974992,-22.227580947671619,0.0]}},
{"type":"Feature","properties":{"Sites":"APS","Secteur":"BDA"},"geometry":{"type":"Point","coordinates":[43.289006882422392,-22.19277450557227,0.0]}},
{"type":"Feature","properties":{"Sites":"APK","Secteur":"BDA"},"geometry":{"type":"Point","coordinates":[43.2744161784874,-22.189289817463951,0.0]}},
{"type":"Feature","properties":{"Sites":"LBR","Secteur":"BDA"},"geometry":{"type":"Point","coordinates":[43.243929036097207,-22.17667894570468,0.0]}},
{"type":"Feature","properties":{"Sites":"TSM","Secteur":"ADK"},"geometry":{"type":"Point","coordinates":[43.258794321066738,-22.009221253432042,0.0]}},
{"type":"Feature","properties":{"Sites":"BVK","Secteur":"ADK"},"geometry":{"type":"Point","coordinates":[43.254991444038843,-21.95551667551657,0.0]}},
{"type":"Feature","properties":{"Sites":"BLM","Secteur":"ADK"},"geometry":{"type":"Point","coordinates":[43.2818772866963,-21.945136730077479,0.0]}},
{"type":"Feature","properties":{"Sites":"ATS","Secteur":"MKN"},"geometry":{"type":"Point","coordinates":[43.225143859034937,-22.273722302753821,0.0]}},
{"type":"Feature","properties":{"Sites":"ABH","Secteur":"MKN"},"geometry":{"type":"Point","coordinates":[43.24115962696677,-22.348136562728101,0.0]}},
{"type":"Feature","properties":{"Sites":"BGL","Secteur":"MKN"},"geometry":{"type":"Point","coordinates":[43.255909607753637,-22.37325633911032,0.0]}},
{"type":"Feature","properties":{"Sites":"ABT","Secteur":"MKC"},"geometry":{"type":"Point","coordinates":[43.262685815525202,-22.435806056589051,0.0]}},
{"type":"Feature","properties":{"Sites":"ADN","Secteur":"MKC"},"geometry":{"type":"Point","coordinates":[43.263398081984413,-22.46608136731043,0.0]}},
{"type":"Feature","properties":{"Sites":"BKD","Secteur":"MKC"},"geometry":{"type":"Point","coordinates":[43.2729353762779,-22.494262775969741,0.0]}},
{"type":"Feature","properties":{"Sites":"SLN","Secteur":"MKS"},"geometry":{"type":"Point","coordinates":[43.276548052964529,-22.56501963933815,0.0]}},
{"type":"Feature","properties":{"Sites":"SLS","Secteur":"MKS"},"geometry":{"type":"Point","coordinates":[43.287509251688689,-22.58821260661594,0.0]}},
{"type":"Feature","properties":{"Sites":"KFK","Secteur":"MKS"},"geometry":{"type":"Point","coordinates":[43.303244810477047,-22.63203182785622,0.0]}},
{"type":"Feature","properties":{"Sites":"TSD","Secteur":"MKS"},"geometry":{"type":"Point","coordinates":[43.335510152223449,-22.69853944519372,0.0]}},
{"type":"Feature","properties":{"Sites":"LBH","Secteur":"MKS"},"geometry":{"type":"Point","coordinates":[43.347634151638893,-22.773067817095541,0.0]}},
{"type":"Feature","properties":{"Sites":"DRV","Secteur":"BRB"},"geometry":{"type":"Point","coordinates":[43.53649366971085,-23.045149345174451,0.0]}},
{"type":"Feature","properties":{"Sites":"IFT","Secteur":"BRB"},"geometry":{"type":"Point","coordinates":[43.604991451987139,-23.158082217375242,0.0]}},
{"type":"Feature","properties":{"Sites":"BLB","Secteur":"BRB"},"geometry":{"type":"Point","coordinates":[43.610618630074612,-23.1897481611106,0.0]}},
{"type":"Feature","properties":{"Sites":"BRV","Secteur":"BRB"},"geometry":{"type":"Point","coordinates":[43.608662417835461,-23.20088327587386,0.0]}},
{"type":"Feature","properties":{"Sites":"KLB","Secteur":"BTL"},"geometry":{"type":"Point","coordinates":[43.737210339115627,-23.47251487885227,0.0]}},
{"type":"Feature","properties":{"Sites":"RJL","Secteur":"BTL"},"geometry":{"type":"Point","coordinates":[43.752858541852973,-23.472349565906619,0.0]}},
{"type":"Feature","properties":{"Sites":"RVK","Secteur":"BTL"},"geometry":{"type":"Point","coordinates":[43.748688779589827,-23.497120518175109,0.0]}},
{"type":"Feature","properties":{"Sites":"SRD","Secteur":"BTL"},"geometry":{"type":"Point","coordinates":[43.744275196673748,-23.50581431183436,0.0]}},
{"type":"Feature","properties":{"Sites":"AKO","Secteur":"OLY"},"geometry":{"type":"Point","coordinates":[43.636658030234777,-23.681220316469162,0.0]}},
{"type":"Feature","properties":{"Sites":"KMG","Secteur":"OLY"},"geometry":{"type":"Point","coordinates":[43.63930305673572,-23.706617849533149,0.0]}},
{"type":"Feature","properties":{"Sites":"ARG","Secteur":"OLY"},"geometry":{"type":"Point","coordinates":[43.638964772106448,-23.735277160068591,0.0]}},
{"type":"Feature","properties":{"Sites":"MRM","Secteur":"TPS"},"geometry":{"type":"Point","coordinates":[43.65441655421931,-23.808195999058501,0.0]}},
{"type":"Feature","properties":{"Sites":"BFS","Secteur":"TPS"},"geometry":{"type":"Point","coordinates":[43.656774357064741,-23.828267309493611,0.0]}},
{"type":"Feature","properties":{"Sites":"BHT","Secteur":"TPS"},"geometry":{"type":"Point","coordinates":[43.65659764295809,-23.85219910751038,0.0]}},
{"type":"Feature","properties":{"Sites":"BHK","Secteur":"TPS"},"geometry":{"type":"Point","coordinates":[43.665553800437763,-23.901340473040118,0.0]}},
{"type":"Feature","properties":{"Sites":"BSB","Secteur":"TPS"},"geometry":{"type":"Point","coordinates":[43.662412944207759,-23.956660250935741,0.0]}},
{"type":"Feature","properties":{"Sites":"SKO","Secteur":"SKO"},"geometry":{"type":"Point","coordinates":[44.033590711265141,-25.012186328339769,0.0]}},
{"type":"Feature","properties":{"Sites":"LNR","Secteur":"SKO"},"geometry":{"type":"Point","coordinates":[44.026967436065249,-25.003385283813969,0.0]}},
{"type":"Feature","properties":{"Sites":"TKR","Secteur":"SKO"},"geometry":{"type":"Point","coordinates":[44.078507083041671,-25.057271743354612,0.0]}},
{"type":"Feature","properties":{"Sites":"BHB","Secteur":"SKO"},"geometry":{"type":"Point","coordinates":[44.106094276959361,-25.08019387721076,0.0]}},
{"type":"Feature","properties":{"Sites":"TSG","Secteur":"ADK"},"geometry":{"type":"Point","coordinates":[43.242639148334632,-22.093204272176052,0.0]}},
{"type":"Feature","properties":{"Sites":"APL","Secteur":"ADK"},"geometry":{"type":"Point","coordinates":[43.245081611111203,-22.115893291202546,0.0]}},
{"type":"Feature","properties":{"Sites":"BLR","Secteur":"KMT"},"geometry":{"type":"Point","coordinates":[44.124066358991961,-20.48122752764009,0.0]}},
{"type":"Feature","properties":{"Sites":"MNK","Secteur":"KMT"},"geometry":{"type":"Point","coordinates":[44.047149269359338,-20.711313574343151,0.0]}},
{"type":"Feature","properties":{"Sites":"BSM","Secteur":"KMT"},"geometry":{"type":"Point","coordinates":[43.9973159919615,-20.757414220114651,0.0]}},
{"type":"Feature","properties":{"Sites":"MNH","Secteur":"KMT"},"geometry":{"type":"Point","coordinates":[43.910187726418982,-20.85546386586044,0.0]}},
{"type":"Feature","properties":{"Sites":"ABL","Secteur":"BRB"},"geometry":{"type":"Point","coordinates":[43.573130376530237,-23.064102103152791,0.0]}}
]
}
